PAKSAT-1R               
1 37779U 11042A   26189.15062094  .00000168  00000+0  00000+0 0  9997
2 37779   0.7401  84.4024 0002918 358.7592 295.2240  1.00276749 54681
SES-2                   
1 37809U 11049A   26189.19632785 -.00000181  00000+0  00000+0 0  9998
2 37809   0.1091  92.1365 0002733  14.9350 162.7599  1.00270762 54174
ARABSAT-5C              
1 37810U 11049B   26189.14706758  .00000139  00000+0  00000+0 0  9999
2 37810   0.0469   1.5949 0003721 126.1161 231.3570  1.00274978 54243
EUTELSAT 7 WEST A       
1 37816U 11051A   26189.17475236 -.00000045  00000+0  00000+0 0  9992
2 37816   0.0687 331.1632 0004718 152.3705 218.2009  1.00272381 54083
QUETZSAT 1              
1 37826U 11054A   26189.19784706 -.00000226  00000+0  00000+0 0  9994
2 37826   0.0179 322.4479 0002745 154.5311 163.3980  1.00270219 50089
INTELSAT 18 (IS-18)     
1 37834U 11056A   26189.10740897  .00000068  00000+0  00000+0 0  9992
2 37834   0.0171 346.8462 0001822 132.2193  25.6566  1.00271618 54020
EUTELSAT 16A            
1 37836U 11057A   26189.14620090  .00000119  00000+0  00000+0 0  9998
2 37836   0.0377 357.1841 0005816 106.3213 251.2086  1.00271097  7548
VIASAT-1                
1 37843U 11059A   26189.10183012  .00000000  00000+0  00000+0 0  9991
2 37843   0.0229  26.5580 0002171  85.5603  95.4899  1.00269161 47533
ASIASAT 7               
1 37933U 11069A   26189.11642233 -.00000318  00000+0  00000+0 0  9991
2 37933   0.0154   8.0545 0001035  86.5409 338.8825  1.00268185 45063
BEIDOU-2 IGSO-5         
1 37948U 11073A   26183.72937883 -.00000128  00000+0  00000+0 0  9990
2 37948  47.6496 271.3544 0114527 222.0502 141.5350  1.00270596 53296
LUCH-5A                 
1 37951U 11074B   26188.62754560 -.00000040  00000+0  00000+0 0  9991
2 37951   8.8024  73.5077 0002596  53.4217 191.5356  1.00272610 53256
NIGCOMSAT 1R            
1 38014U 11077A   26189.15148762  .00000160  00000+0  00000+0 0  9997
2 38014   0.0325 171.9375 0002390 176.6297  34.5731  1.00273682 53160
WGS F4 (USA 233)        
1 38070U 12003A   26189.08929557  .00000000  00000+0  00000+0 0  9993
2 38070   0.0221  29.6691 0000862 117.5945 259.3226  1.00265513 44354
SES-4                   
1 38087U 12007A   26189.18586491 -.00000153  00000+0  00000+0 0  9992
2 38087   0.0195  52.4748 0002440  54.1008 224.4744  1.00269809 52437
BEIDOU-2 G5             
1 38091U 12008A   26189.15478096  .00000070  00000+0  00000+0 0  9993
2 38091   3.6226  69.5690 0007395 272.8832  58.1023  1.00268862 52574
MUOS-1                  
1 38093U 12009A   26189.13656910 -.00000117  00000+0  00000+0 0  9990
2 38093   5.5179  47.1299 0057309   3.0753 185.0915  1.00272260 52653
INTELSAT 22 (IS-22)     
1 38098U 12011A   26189.19955696  .00000000  00000+0  00000+0 0  9997
2 38098   0.0292  59.1866 0001867  74.3080 296.5795  1.00269460  7392
YAHSAT 1B               
1 38245U 12016A   26189.15252762  .00000142  00000+0  00000+0 0  9993
2 38245   0.0883  88.8537 0003260  40.9408 258.8242  1.00270287 45814
AEHF-2 (USA 235)        
1 38254U 12019A   26188.92597950 -.00000125  00000+0  00000+0 0  9993
2 38254   6.6973  57.3347 0002197  48.5943 136.7964  1.00272774  7199
JCSAT-13                
1 38331U 12023A   26189.09419764 -.00000341  00000+0  00000+0 0  9999
2 38331   0.0147  25.0638 0002912  98.4984 320.4111  1.00271633 51755
VINASAT-2               
1 38332U 12023B   26189.17961899 -.00000314  00000+0  00000+0 0  9990
2 38332   0.0252 315.3461 0002270 157.1824  10.1211  1.00270872 46870
NIMIQ 6                 
1 38342U 12026A   26189.12504078 -.00000158  00000+0  00000+0 0  9997
2 38342   0.0244 296.0623 0002628 175.2044 128.7244  1.00270585 50620
ZHONGXING-2A            
1 38352U 12028A   26189.09128891 -.00000279  00000+0  00000+0 0  9995
2 38352   1.5053  83.6346 0001715  23.9156 309.6050  1.00274179 51502
INTELSAT 19 (IS-19)     
1 38356U 12030A   26189.10454897 -.00000041  00000+0  00000+0 0  9999
2 38356   0.0011 354.3924 0003163 125.6998   9.6089  1.00271632 50663
ECHOSTAR 17             
1 38551U 12035A   26188.90800477  .00000000  00000+0  00000+0 0  9991
2 38551   0.0253  35.8147 0001868  69.7876  40.0503  1.00269667 51272
METEOSAT-10 (MSG-3)     
1 38552U 12035B   26189.00053866  .00000005  00000+0  00000+0 0  9991
2 38552   4.7178  60.9132 0001241  18.7358 206.5862  1.00269791 51069
SES-5                   
1 38652U 12036A   26189.16919749  .00000049  00000+0  00000+0 0  9999
2 38652   0.0470 317.0216 0001932 151.7548 243.2463  1.00271615 44660
INTELSAT 20 (IS-20)     
1 38740U 12043A   26189.20303228 -.00000010  00000+0  00000+0 0  9998
2 38740   0.0094  48.7876 0001172 134.7906 244.1617  1.00272878 50957
HYLAS 2                 
1 38741U 12043B   26189.17839397 -.00000244  00000+0  00000+0 0  9995
2 38741   2.4781  80.8167 0002546  50.3924 146.5678  1.00270259 50982
INTELSAT 21 (IS-21)     
1 38749U 12045A   26189.13414714 -.00000270  00000+0  00000+0 0  9992
2 38749   0.0174 349.6483 0001764 139.7386 146.9946  1.00269849 50730
ASTRA 2F                
1 38778U 12051A   26189.14871426  .00000165  00000+0  00000+0 0  9991
2 38778   0.0594 248.0663 0002731 293.9161 185.8894  1.00274303 41341
