OBJECT_NAME,OBJECT_ID,EPOCH,MEAN_MOTION,ECCENTRICITY,INCLINATION,RA_OF_ASC_NODE,ARG_OF_PERICENTER,MEAN_ANOMALY,EPHEMERIS_TYPE,CLASSIFICATION_TYPE,NORAD_CAT_ID,ELEMENT_SET_NO,REV_AT_EPOCH,BSTAR,MEAN_MOTION_DOT,MEAN_MOTION_DDOT
PAKSAT-1R,2011-042A,2026-07-08T03:36:53.649216,1.00276749,.0002918,0.7401,84.4024,358.7592,295.2240,0,U,37779,999,5468,0,.168E-5,0
SES-2,2011-049A,2026-07-08T04:42:42.726240,1.00270762,.0002733,0.1091,92.1365,14.9350,162.7599,0,U,37809,999,5417,0,-.181E-5,0
ARABSAT-5C,2011-049B,2026-07-08T03:31:46.638912,1.00274978,.0003721,0.0469,1.5949,126.1161,231.3570,0,U,37810,999,5424,0,.139E-5,0
EUTELSAT 7 WEST A,2011-051A,2026-07-08T04:11:38.603904,1.00272381,.0004718,0.0687,331.1632,152.3705,218.2009,0,U,37816,999,5408,0,-.45E-6,0
QUETZSAT 1,2011-054A,2026-07-08T04:44:53.985984,1.00270219,.0002745,0.0179,322.4479,154.5311,163.3980,0,U,37826,999,5008,0,-.226E-5,0
INTELSAT 18 (IS-18),2011-056A,2026-07-08T02:34:40.135008,1.00271618,.0001822,0.0171,346.8462,132.2193,25.6566,0,U,37834,999,5402,0,.68E-6,0
EUTELSAT 16A,2011-057A,2026-07-08T03:30:31.757760,1.00271097,.0005816,0.0377,357.1841,106.3213,251.2086,0,U,37836,999,754,0,.119E-5,0
VIASAT-1,2011-059A,2026-07-08T02:26:38.122368,1.00269161,.0002171,0.0229,26.5580,85.5603,95.4899,0,U,37843,999,4753,0,0,0
ASIASAT 7,2011-069A,2026-07-08T02:47:38.889312,1.00268185,.0001035,0.0154,8.0545,86.5409,338.8825,0,U,37933,999,4506,0,-.318E-5,0
BEIDOU-2 IGSO-5,2011-073A,2026-07-02T17:30:18.330912,1.00270596,.01145273,47.6496,271.3544,222.0502,141.5350,0,U,37948,999,5329,0,-.128E-5,0
LUCH-5A,2011-074B,2026-07-07T15:03:39.939840,1.00272610,.0002596,8.8024,73.5077,53.4217,191.5356,0,U,37951,999,5325,0,-.4E-6,0
NIGCOMSAT 1R,2011-077A,2026-07-08T03:38:08.530368,1.00273682,.000239,0.0325,171.9375,176.6297,34.5731,0,U,38014,999,5316,0,.16E-5,0
WGS F4 (USA 233),2012-003A,2026-07-08T02:08:35.137248,1.00265513,.0000862,0.0221,29.6691,117.5945,259.3226,0,U,38070,999,4435,0,0,0
SES-4,2012-007A,2026-07-08T04:27:38.728224,1.00269809,.000244,0.0195,52.4748,54.1008,224.4744,0,U,38087,999,5243,0,-.153E-5,0
BEIDOU-2 G5,2012-008A,2026-07-08T03:42:53.074944,1.00268862,.0007395,3.6226,69.5690,272.8832,58.1023,0,U,38091,999,5257,0,.7E-6,0
MUOS-1,2012-009A,2026-07-08T03:16:39.570240,1.00272260,.0057309,5.5179,47.1299,3.0753,185.0915,0,U,38093,999,5265,0,-.117E-5,0
INTELSAT 22 (IS-22),2012-011A,2026-07-08T04:47:21.721344,1.00269460,.0001867,0.0292,59.1866,74.3080,296.5795,0,U,38098,999,739,0,0,0
YAHSAT 1B,2012-016A,2026-07-08T03:39:38.386368,1.00270287,.000326,0.0883,88.8537,40.9408,258.8242,0,U,38245,999,4581,0,.142E-5,0
AEHF-2 (USA 235),2012-019A,2026-07-07T22:13:24.628800,1.00272774,.0002197,6.6973,57.3347,48.5943,136.7964,0,U,38254,999,719,0,-.125E-5,0
JCSAT-13,2012-023A,2026-07-08T02:15:38.676096,1.00271633,.0002912,0.0147,25.0638,98.4984,320.4111,0,U,38331,999,5175,0,-.341E-5,0
VINASAT-2,2012-023B,2026-07-08T04:18:39.080736,1.00270872,.000227,0.0252,315.3461,157.1824,10.1211,0,U,38332,999,4687,0,-.314E-5,0
NIMIQ 6,2012-026A,2026-07-08T03:00:03.523392,1.00270585,.0002628,0.0244,296.0623,175.2044,128.7244,0,U,38342,999,5062,0,-.158E-5,0
ZHONGXING-2A,2012-028A,2026-07-08T02:11:27.361824,1.00274179,.0001715,1.5053,83.6346,23.9156,309.6050,0,U,38352,999,5150,0,-.279E-5,0
INTELSAT 19 (IS-19),2012-030A,2026-07-08T02:30:33.031008,1.00271632,.0003163,0.0011,354.3924,125.6998,9.6089,0,U,38356,999,5066,0,-.41E-6,0
ECHOSTAR 17,2012-035A,2026-07-07T21:47:31.612128,1.00269667,.0001868,0.0253,35.8147,69.7876,40.0503,0,U,38551,999,5127,0,0,0
METEOSAT-10 (MSG-3),2012-035B,2026-07-08T00:00:46.540224,1.00269791,.0001241,4.7178,60.9132,18.7358,206.5862,0,U,38552,999,5106,0,.5E-7,0
SES-5,2012-036A,2026-07-08T04:03:38.663136,1.00271615,.0001932,0.0470,317.0216,151.7548,243.2463,0,U,38652,999,4466,0,.49E-6,0
INTELSAT 20 (IS-20),2012-043A,2026-07-08T04:52:21.988992,1.00272878,.0001172,0.0094,48.7876,134.7906,244.1617,0,U,38740,999,5095,0,-.1E-6,0
HYLAS 2,2012-043B,2026-07-08T04:16:53.239008,1.00270259,.0002546,2.4781,80.8167,50.3924,146.5678,0,U,38741,999,5098,0,-.244E-5,0
INTELSAT 21 (IS-21),2012-045A,2026-07-08T03:13:10.312896,1.00269849,.0001764,0.0174,349.6483,139.7386,146.9946,0,U,38749,999,5073,0,-.27E-5,0
ASTRA 2F,2012-051A,2026-07-08T03:34:08.912064,1.00274303,.0002731,0.0594,248.0663,293.9161,185.8894,0,U,38778,999,4134,0,.165E-5,0
